NORAD_CAT_ID,OBJECT_NAME,OBJECT_TYPE,EPOCH,MEAN_MOTION,ECCENTRICITY,INCLINATION,RA_OF_ASC_NODE,ARG_OF_PERICENTER,MEAN_ANOMALY,BSTAR,MEAN_MOTION_DOT,MEAN_MOTION_DDOT,TLE_LINE0,TLE_LINE1,TLE_LINE2,SEMIMAJOR_AXIS,PERIOD,APOGEE,PERIGEE,DECAYED
52341.0,STARLINK-3843,PAYLOAD,2023-09-18 10:36:33,15.08851475,0.0001588,53.2167,303.9122,71.1836,288.9328,-8.8965e-06,-4.3e-06,0.0,0 STARLINK-3843,1 52341U 22045L   23261.44206004 -.00000430  00000-0 -88965-5 0  9992,2 52341  53.2167 303.9122 0001588  71.1836 288.9328 15.08851475 79289,6917.845,95.437,540.809,538.612,0.0
52341.0,STARLINK-3843,PAYLOAD,2023-09-18 20:08:52,15.08848998,0.0001623,53.2167,302.1283,74.0319,286.0851,5.5379e-05,5.94e-06,0.0,0 STARLINK-3843,1 52341U 22045L   23261.83950014  .00000594  00000-0  55379-4 0  9993,2 52341  53.2167 302.1283 0001623  74.0319 286.0851 15.08848998 79349,6917.853,95.437,540.841,538.595,0.0
52341.0,STARLINK-3843,PAYLOAD,2023-09-19 02:30:25,15.08846115,0.0001579,53.2168,300.9389,74.5978,285.5189,0.00011102,1.48e-05,0.0,0 STARLINK-3843,1 52341U 22045L   23262.10446084  .00001480  00000-0  11102-3 0  9991,2 52341  53.2168 300.9389 0001579  74.5978 285.5189 15.08846115 79380,6917.862,95.437,540.819,538.634,0.0
52341.0,STARLINK-3843,PAYLOAD,2023-09-20 02:21:12,15.08838522,0.0001455,53.2165,296.4785,82.3645,277.7512,5.4102e-05,5.73e-06,0.0,0 STARLINK-3843,1 52341U 22045L   23263.09806370  .00000573  00000-0  54102-4 0  9998,2 52341  53.2165 296.4785 0001455  82.3645 277.7512 15.08838522 79530,6917.885,95.438,540.756,538.743,0.0
52341.0,STARLINK-3843,PAYLOAD,2023-09-20 08:42:45,15.08836138,0.0001649,53.2166,295.2889,75.2666,284.8509,1.8166e-06,-2.59e-06,0.0,0 STARLINK-3843,1 52341U 22045L   23263.36302729 -.00000259  00000-0  18166-5 0  9990,2 52341  53.2166 295.2889 0001649  75.2666 284.8509 15.08836138 79572,6917.892,95.438,540.898,538.616,0.0
52341.0,STARLINK-3843,PAYLOAD,2023-09-21 02:12:00,15.08831714,0.0001655,53.2162,292.017,88.1542,271.964,-5.0461e-05,-1.091e-05,0.0,0 STARLINK-3843,1 52341U 22045L   23264.09167266 -.00001091  00000-0 -50461-4 0  9995,2 52341  53.2162 292.0170 0001655  88.1542 271.9640 15.08831714 79689,6917.906,95.438,540.916,538.626,0.0
52341.0,STARLINK-3843,PAYLOAD,2023-09-21 06:58:09,15.0883292,0.0001643,53.2164,291.1255,86.6103,273.5077,-3.8225e-06,-3.49e-06,0.0,0 STARLINK-3843,1 52341U 22045L   23264.29039324 -.00000349  00000-0 -38225-5 0  9990,2 52341  53.2164 291.1255 0001643  86.6103 273.5077 15.08832920 79714,6917.902,95.438,540.904,538.63,0.0
52341.0,STARLINK-3843,PAYLOAD,2023-09-22 02:02:47,15.0883624,0.0001599,53.2169,287.5557,107.5774,252.5393,0.00021454,3.128e-05,0.0,0 STARLINK-3843,1 52341U 22045L   23265.08527039  .00003128  00000-0  21454-3 0  9993,2 52341  53.2169 287.5557 0001599 107.5774 252.5393 15.08836240 79830,6917.892,95.438,540.863,538.651,0.0
52341.0,STARLINK-3843,PAYLOAD,2023-09-22 08:24:19,15.08844003,0.0001615,53.2162,286.3667,104.167,255.9502,0.00033557,5.057e-05,0.0,0 STARLINK-3843,1 52341U 22045L   23265.35023119  .00005057  00000-0  33557-3 0  9993,2 52341  53.2162 286.3667 0001615 104.1670 255.9502 15.08844003 79878,6917.868,95.437,540.85,538.616,0.0
52341.0,STARLINK-3843,PAYLOAD,2023-09-22 17:56:38,15.08843022,0.0001602,53.2158,284.5822,101.3931,258.7241,0.00025705,3.806e-05,0.0,0 STARLINK-3843,1 52341U 22045L   23265.74767208  .00003806  00000-0  25705-3 0  9996,2 52341  53.2158 284.5822 0001602 101.3931 258.7241 15.08843022 79939,6917.871,95.437,540.844,538.628,0.0
52341.0,STARLINK-3843,PAYLOAD,2023-09-23 06:39:43,15.08847691,0.0001597,53.2159,282.2039,101.6525,258.4647,0.00021279,3.101e-05,0.0,0 STARLINK-3843,1 52341U 22045L   23266.27758882  .00003101  00000-0  21279-3 0  9993,2 52341  53.2159 282.2039 0001597 101.6525 258.4647 15.08847691 80014,6917.857,95.437,540.827,538.617,0.0
52341.0,STARLINK-3843,PAYLOAD,2023-09-24 04:55:07,15.08838185,0.0001603,53.2161,278.0414,99.6376,260.4797,-6.7837e-05,-1.367e-05,0.0,0 STARLINK-3843,1 52341U 22045L   23267.20495046 -.00001367  00000-0 -67837-4 0  9992,2 52341  53.2161 278.0414 0001603  99.6376 260.4797 15.08838185 80157,6917.886,95.438,540.86,538.642,0.0
52341.0,STARLINK-3843,PAYLOAD,2023-09-24 11:16:40,15.0884339,0.0001556,53.2169,276.8513,101.1327,258.984,2.8125e-05,1.6e-06,0.0,0 STARLINK-3843,1 52341U 22045L   23267.46991069  .00000160  00000-0  28125-4 0  9991,2 52341  53.2169 276.8513 0001556 101.1327 258.9840 15.08843390 80192,6917.87,95.437,540.811,538.659,0.0
52341.0,STARLINK-3843,PAYLOAD,2023-09-25 07:56:40,15.0884668,0.000152,53.2167,272.9841,96.2651,263.8514,8.9612e-05,1.139e-05,0.0,0 STARLINK-3843,1 52341U 22045L   23268.33102673  .00001139  00000-0  89612-4 0  9998,2 52341  53.2167 272.9841 0001520  96.2651 263.8514 15.08846680 80329,6917.86,95.437,540.776,538.673,0.0
52341.0,STARLINK-3843,PAYLOAD,2023-09-26 09:22:50,15.08849586,0.0001535,53.2166,268.2251,96.6443,263.4724,0.00015155,2.125e-05,0.0,0 STARLINK-3843,1 52341U 22045L   23269.39086173  .00002125  00000-0  15155-3 0  9997,2 52341  53.2166 268.2251 0001535  96.6443 263.4724 15.08849586 80484,6917.851,95.437,540.778,538.654,0.0
52341.0,STARLINK-3843,PAYLOAD,2023-09-26 23:41:19,15.08840048,0.0002068,53.2175,265.5497,118.7964,241.3236,7.4469e-05,8.97e-06,0.0,0 STARLINK-3843,1 52341U 22045L   23269.98702993  .00000897  00000-0  74469-4 0  9995,2 52341  53.2175 265.5497 0002068 118.7964 241.3236 15.08840048 80579,6917.88,95.438,541.176,538.315,0.0
52341.0,STARLINK-3843,PAYLOAD,2023-09-27 09:13:38,15.08843064,0.0001464,53.2166,263.7648,101.1569,258.9588,3.6942e-05,3e-06,0.0,0 STARLINK-3843,1 52341U 22045L   23270.38446874  .00000300  00000-0  36942-4 0  9997,2 52341  53.2166 263.7648 0001464 101.1569 258.9588 15.08843064 80635,6917.871,95.437,540.749,538.723,0.0
52341.0,STARLINK-3843,PAYLOAD,2023-09-28 04:18:16,15.08836406,0.0001344,53.2153,260.1939,102.1083,258.006,-6.6346e-05,-1.344e-05,0.0,0 STARLINK-3843,1 52341U 22045L   23271.17935762 -.00001344  00000-0 -66346-4 0  9996,2 52341  53.2153 260.1939 0001344 102.1083 258.0060 15.08836406 80755,6917.891,95.438,540.686,538.827,0.0
52341.0,STARLINK-3843,PAYLOAD,2023-09-28 09:04:25,15.08838444,0.0001353,53.2154,259.3043,110.3952,249.7185,-5.5088e-05,-1.164e-05,0.0,0 STARLINK-3843,1 52341U 22045L   23271.37807613 -.00001164  00000-0 -55088-4 0  9992,2 52341  53.2154 259.3043 0001353 110.3952 249.7185 15.08838444 80780,6917.885,95.438,540.686,538.814,0.0
52341.0,STARLINK-3843,PAYLOAD,2023-09-29 08:55:12,15.08841847,0.0001302,53.2155,254.8437,103.5422,256.5716,0.0001433,1.994e-05,0.0,0 STARLINK-3843,1 52341U 22045L   23272.37167150  .00001994  00000-0  14330-3 0  9991,2 52341  53.2155 254.8437 0001302 103.5422 256.5716 15.08841847 80932,6917.875,95.437,540.64,538.839,0.0
52341.0,STARLINK-3843,PAYLOAD,2023-09-30 05:35:12,15.0884988,0.0001408,53.2164,250.9767,109.6231,250.4914,0.0002175,3.176e-05,0.0,0 STARLINK-3843,1 52341U 22045L   23273.23278623  .00003176  00000-0  21750-3 0  9993,2 52341  53.2164 250.9767 0001408 109.6231 250.4914 15.08849880 81060,6917.85,95.437,540.689,538.741,0.0
52341.0,STARLINK-3843,PAYLOAD,2023-09-30 15:07:31,15.08845069,0.0001508,53.2156,249.1903,77.1355,282.9805,0.00011007,1.464e-05,0.0,0 STARLINK-3843,1 52341U 22045L   23273.63023130  .00001464  00000-0  11007-3 0  9990,2 52341  53.2156 249.1903 0001508  77.1355 282.9805 15.08845069 81121,6917.865,95.437,540.773,538.687,0.0
52341.0,STARLINK-3843,PAYLOAD,2023-10-01 05:26:00,15.08849738,0.0001189,53.2154,246.5158,81.2962,278.8165,0.00013769,1.905e-05,0.0,0 STARLINK-3843,1 52341U 22045L   23274.22639105  .00001905  00000-0  13769-3 0  9998,2 52341  53.2154 246.5158 0001189  81.2962 278.8165 15.08849738 81217,6917.851,95.437,540.538,538.893,0.0
52341.0,STARLINK-3843,PAYLOAD,2023-10-01 14:58:17,15.08868101,0.0001268,53.2157,244.7312,82.711,277.4026,0.00036375,5.51e-05,0.0,0 STARLINK-3843,1 52341U 22045L   23274.62381711  .00005510  00000-0  36375-3 0  9993,2 52341  53.2157 244.7312 0001268  82.7110 277.4026 15.08868101 81273,6917.794,95.436,540.537,538.782,0.0
52341.0,STARLINK-3843,PAYLOAD,2023-10-01 21:19:49,15.08873524,0.0001246,53.2155,243.5409,77.4609,282.6523,0.00041133,6.27e-05,0.0,0 STARLINK-3843,1 52341U 22045L   23274.88877048  .00006270  00000-0  41133-3 0  9996,2 52341  53.2155 243.5409 0001246  77.4609 282.6523 15.08873524 81315,6917.778,95.435,540.505,538.781,0.0
52341.0,STARLINK-3843,PAYLOAD,2023-10-02 02:05:59,15.08855708,1.25e-05,53.2159,242.6488,137.306,222.7942,7.5072e-05,9.08e-06,0.0,0 STARLINK-3843,1 52341U 22045L   23275.08749395  .00000908  00000-0  75072-4 0  9994,2 52341  53.2159 242.6488 0000125 137.3060 222.7942 15.08855708 81345,6917.832,95.437,539.784,539.611,0.0
52341.0,STARLINK-3843,PAYLOAD,2023-10-02 06:52:10,15.08828489,0.0001477,53.2158,241.7587,95.6943,264.4218,-0.00031475,-5.292e-05,0.0,0 STARLINK-3843,1 52341U 22045L   23275.28623033 -.00005292  00000-0 -31475-3 0  9997,2 52341  53.2158 241.7587 0001477  95.6943 264.4218 15.08828489 81379,6917.916,95.438,540.802,538.759,0.0
52341.0,STARLINK-3843,PAYLOAD,2023-10-03 08:18:21,15.08828516,0.0001628,53.2159,237.0007,93.3555,266.7623,-0.00010557,-1.967e-05,0.0,0 STARLINK-3843,1 52341U 22045L   23276.34607768 -.00001967  00000-0 -10557-3 0  9995,2 52341  53.2159 237.0007 0001628  93.3555 266.7623 15.08828516 81531,6917.915,95.438,540.907,538.654,0.0
52341.0,STARLINK-3843,PAYLOAD,2023-10-04 06:33:45,15.08839469,0.0001702,53.2159,232.8381,99.0851,261.0333,0.00032888,4.95e-05,0.0,0 STARLINK-3843,1 52341U 22045L   23277.27344263  .00004950  00000-0  32888-3 0  9990,2 52341  53.2159 232.8381 0001702  99.0851 261.0333 15.08839469 81674,6917.882,95.438,540.924,538.57,0.0
52341.0,STARLINK-3843,PAYLOAD,2023-10-04 14:30:41,15.08837524,0.0001748,53.2162,231.3511,92.6464,267.4728,0.00046103,7.056e-05,0.0,0 STARLINK-3843,1 52341U 22045L   23277.60464857  .00007056  00000-0  46103-3 0  9994,2 52341  53.2162 231.3511 0001748  92.6464 267.4728 15.08837524 81720,6917.888,95.438,540.962,538.544,0.0
